start=new Date('2022-12-16T00:00:00.000Z').valueOf();
sats=[{"RCS_SIZE":"LARGE","MEAN_MOTION":"15.08839490","OBJECT_ID":"2022-119P","TLE_LINE1":"1 53899U 22119P   22349.85891343  .00001195  00000-0  93157-4 0  9995","LAUNCH_DATE":"2022-09-24","ECCENTRICITY":"0.00021310","CLASSIFICATION_TYPE":"U","MEAN_ANOMALY":"327.5302","TIME_SYSTEM":"UTC","PERIOD":"95.438","RA_OF_ASC_NODE":"220.3389","SITE":"AFETR","MEAN_MOTION_DDOT":"0.0000000000000","PERIAPSIS":"538.273","MEAN_ELEMENT_THEORY":"SGP4","INCLINATION":"53.2163","ARG_OF_PERICENTER":"32.5821","EPHEMERIS_TYPE":"0","REV_AT_EPOCH":"1357","APOAPSIS":"541.221","DECAY_DATE":null,"MEAN_MOTION_DOT":"0.00001195","FILE":"3702726","ELEMENT_SET_NO":"999","SEMIMAJOR_AXIS":"6917.882","EPOCH":"2022-12-15T20:36:50.120352","OBJECT_NAME":"STARLINK-5042","BSTAR":"0.00009315700000","COUNTRY_CODE":"US","CENTER_NAME":"EARTH","NORAD_CAT_ID":"53899","REF_FRAME":"TEME","GP_ID":"220530947","TLE_LINE2":"2 53899  53.2163 220.3389 0002131  32.5821 327.5302 15.08839490 13576","OBJECT_TYPE":"PAYLOAD"},{"COUNTRY_CODE":"US","CENTER_NAME":"EARTH","REF_FRAME":"TEME","NORAD_CAT_ID":"53900","OBJECT_TYPE":"PAYLOAD","GP_ID":"220531159","TLE_LINE2":"2 53900  53.2154 220.2686 0001293  82.7948 277.3191 15.08841599 13574","ARG_OF_PERICENTER":"82.7948","EPHEMERIS_TYPE":"0","REV_AT_EPOCH":"1357","FILE":"3702726","MEAN_MOTION_DOT":"0.00000647","APOAPSIS":"540.635","DECAY_DATE":null,"ELEMENT_SET_NO":"999","SEMIMAJOR_AXIS":"6917.876","OBJECT_NAME":"STARLINK-5045","BSTAR":"0.00005871100000","EPOCH":"2022-12-15T20:20:54.563136","RA_OF_ASC_NODE":"220.2686","PERIOD":"95.437","MEAN_MOTION_DDOT":"0.0000000000000","SITE":"AFETR","INCLINATION":"53.2154","PERIAPSIS":"538.846","MEAN_ELEMENT_THEORY":"SGP4","MEAN_MOTION":"15.08841599","RCS_SIZE":"LARGE","LAUNCH_DATE":"2022-09-24","TLE_LINE1":"1 53900U 22119Q   22349.84785374  .00000647  00000-0  58711-4 0  9991","ECCENTRICITY":"0.00012930","OBJECT_ID":"2022-119Q","MEAN_ANOMALY":"277.3191","CLASSIFICATION_TYPE":"U","TIME_SYSTEM":"UTC"},{"CENTER_NAME":"EARTH","COUNTRY_CODE":"US","NORAD_CAT_ID":"53901","REF_FRAME":"TEME","TLE_LINE2":"2 53901  53.2171 220.3671 0001884  47.5442 312.5709 15.08837124 13579","GP_ID":"220531371","OBJECT_TYPE":"PAYLOAD","ARG_OF_PERICENTER":"47.5442","EPHEMERIS_TYPE":"0","REV_AT_EPOCH":"1357","DECAY_DATE":null,"APOAPSIS":"541.058","FILE":"3702726","MEAN_MOTION_DOT":"0.00000136","ELEMENT_SET_NO":"999","SEMIMAJOR_AXIS":"6917.889","EPOCH":"2022-12-15T20:42:08.262432","OBJECT_NAME":"STARLINK-5024","BSTAR":"0.00002666300000","RA_OF_ASC_NODE":"220.3671","PERIOD":"95.438","MEAN_MOTION_DDOT":"0.0000000000000","SITE":"AFETR","MEAN_ELEMENT_THEORY":"SGP4","PERIAPSIS":"538.451","INCLINATION":"53.2171","RCS_SIZE":"LARGE","MEAN_MOTION":"15.08837124","OBJECT_ID":"2022-119R","TLE_LINE1":"1 53901U 22119R   22349.86259563  .00000136  00000-0  26663-4 0  9994","ECCENTRICITY":"0.00018840","LAUNCH_DATE":"2022-09-24","CLASSIFICATION_TYPE":"U","MEAN_ANOMALY":"312.5709","TIME_SYSTEM":"UTC"},{"TLE_LINE2":"2 53902  53.2140 207.4104 0008681 284.7010  75.3048 15.73215826 13752","GP_ID":"220530308","OBJECT_TYPE":"PAYLOAD","COUNTRY_CODE":"US","CENTER_NAME":"EARTH","NORAD_CAT_ID":"53902","REF_FRAME":"TEME","ELEMENT_SET_NO":"999","SEMIMAJOR_AXIS":"6727.850","EPOCH":"2022-12-15T20:26:05.479584","OBJECT_NAME":"STARLINK-5021","BSTAR":"0.00000732180000","EPHEMERIS_TYPE":"0","ARG_OF_PERICENTER":"284.7010","REV_AT_EPOCH":"1375","DECAY_DATE":null,"APOAPSIS":"355.556","FILE":"3702726","MEAN_MOTION_DOT":"0.00000397","MEAN_ELEMENT_THEORY":"SGP4","PERIAPSIS":"343.875","INCLINATION":"53.2140","RA_OF_ASC_NODE":"207.4104","PERIOD":"91.532","MEAN_MOTION_DDOT":"0.0000000000000","SITE":"AFETR","CLASSIFICATION_TYPE":"U","MEAN_ANOMALY":"75.3048","TIME_SYSTEM":"UTC","RCS_SIZE":"LARGE","MEAN_MOTION":"15.73215826","OBJECT_ID":"2022-119S","LAUNCH_DATE":"2022-09-24","TLE_LINE1":"1 53902U 22119S   22349.85145231  .00000397  00000-0  73218-5 0  9998","ECCENTRICITY":"0.00086810"},{"EPOCH":"2022-12-15T20:26:12.783840","OBJECT_NAME":"STARLINK-5022","BSTAR":"0.00002708900000","ELEMENT_SET_NO":"999","SEMIMAJOR_AXIS":"6917.874","APOAPSIS":"541.105","DECAY_DATE":null,"MEAN_MOTION_DOT":"0.00000143","FILE":"3702726","EPHEMERIS_TYPE":"0","ARG_OF_PERICENTER":"41.3207","REV_AT_EPOCH":"1357","GP_ID":"220530521","TLE_LINE2":"2 53903  53.2169 220.2995 0001974  41.3207 318.7935 15.08841985 13576","OBJECT_TYPE":"PAYLOAD","NORAD_CAT_ID":"53903","REF_FRAME":"TEME","CENTER_NAME":"EARTH","COUNTRY_CODE":"US","TIME_SYSTEM":"UTC","CLASSIFICATION_TYPE":"U","MEAN_ANOMALY":"318.7935","OBJECT_ID":"2022-119T","ECCENTRICITY":"0.00019740","TLE_LINE1":"1 53903U 22119T   22349.85153685  .00000143  00000-0  27089-4 0  9994","LAUNCH_DATE":"2022-09-24","MEAN_MOTION":"15.08841985","RCS_SIZE":"LARGE","PERIAPSIS":"538.374","MEAN_ELEMENT_THEORY":"SGP4","INCLINATION":"53.2169","MEAN_MOTION_DDOT":"0.0000000000000","SITE":"AFETR","PERIOD":"95.437","RA_OF_ASC_NODE":"220.2995"},{"APOAPSIS":"541.065","DECAY_DATE":null,"FILE":"3702726","MEAN_MOTION_DOT":"0.00000935","EPHEMERIS_TYPE":"0","ARG_OF_PERICENTER":"49.7502","REV_AT_EPOCH":"1357","EPOCH":"2022-12-15T20:15:36.060768","OBJECT_NAME":"STARLINK-4787","BSTAR":"0.00007682400000","ELEMENT_SET_NO":"999","SEMIMAJOR_AXIS":"6917.872","NORAD_CAT_ID":"53904","REF_FRAME":"TEME","COUNTRY_CODE":"US","CENTER_NAME":"EARTH","TLE_LINE2":"2 53904  53.2160 220.2497 0001920  49.7502 310.3658 15.08842788 13578","GP_ID":"220531584","OBJECT_TYPE":"PAYLOAD","OBJECT_ID":"2022-119U","ECCENTRICITY":"0.00019200","TLE_LINE1":"1 53904U 22119U   22349.84416737  .00000935  00000-0  76824-4 0  9994","LAUNCH_DATE":"2022-09-24","RCS_SIZE":"LARGE","MEAN_MOTION":"15.08842788","TIME_SYSTEM":"UTC","CLASSIFICATION_TYPE":"U","MEAN_ANOMALY":"310.3658","SITE":"AFETR","MEAN_MOTION_DDOT":"0.0000000000000","RA_OF_ASC_NODE":"220.2497","PERIOD":"95.437","PERIAPSIS":"538.409","MEAN_ELEMENT_THEORY":"SGP4","INCLINATION":"53.2160"},{"CLASSIFICATION_TYPE":"U","MEAN_ANOMALY":"166.6213","TIME_SYSTEM":"UTC","RCS_SIZE":"LARGE","MEAN_MOTION":"15.25855870","OBJECT_ID":"2022-119V","ECCENTRICITY":"0.00014590","TLE_LINE1":"1 53905U 22119V   22349.91667824 -.01134111  00000-0 -47995-1 0  9999","LAUNCH_DATE":"2022-09-24","PERIAPSIS":"487.217","MEAN_ELEMENT_THEORY":"SGP4","INCLINATION":"53.2175","RA_OF_ASC_NODE":"210.9554","PERIOD":"94.373","SITE":"AFETR","MEAN_MOTION_DDOT":"0.0000000000000","ELEMENT_SET_NO":"999","SEMIMAJOR_AXIS":"6866.354","EPOCH":"2022-12-15T22:00:00.999936","OBJECT_NAME":"STARLINK-5003","BSTAR":"-0.04799500000000","ARG_OF_PERICENTER":"68.3847","EPHEMERIS_TYPE":"0","REV_AT_EPOCH":"130","DECAY_DATE":null,"APOAPSIS":"489.220","FILE":"3702726","MEAN_MOTION_DOT":"-0.01134111","TLE_LINE2":"2 53905  53.2175 210.9554 0001459  68.3847 166.6213 15.25855870  1303","GP_ID":"220531796","OBJECT_TYPE":"PAYLOAD","COUNTRY_CODE":"US","CENTER_NAME":"EARTH","NORAD_CAT_ID":"53905","REF_FRAME":"TEME"},{"TLE_LINE2":"2 53906  53.2175 210.8317 0001343 110.7794 189.4066 15.30399717 13283","GP_ID":"220494712","OBJECT_TYPE":"PAYLOAD","COUNTRY_CODE":"US","CENTER_NAME":"EARTH","NORAD_CAT_ID":"53906","REF_FRAME":"TEME","SEMIMAJOR_AXIS":"6852.756","ELEMENT_SET_NO":"999","EPOCH":"2022-12-15T22:00:00.999936","BSTAR":"-0.03336600000000","OBJECT_NAME":"STARLINK-5054","REV_AT_EPOCH":"1328","ARG_OF_PERICENTER":"110.7794","EPHEMERIS_TYPE":"0","DECAY_DATE":null,"APOAPSIS":"475.541","FILE":"3702276","MEAN_MOTION_DOT":"-0.00911444","MEAN_ELEMENT_THEORY":"SGP4","PERIAPSIS":"473.700","INCLINATION":"53.2175","RA_OF_ASC_NODE":"210.8317","PERIOD":"94.093","MEAN_MOTION_DDOT":"0.0000000000000","SITE":"AFETR","CLASSIFICATION_TYPE":"U","MEAN_ANOMALY":"189.4066","TIME_SYSTEM":"UTC","MEAN_MOTION":"15.30399717","RCS_SIZE":"LARGE","OBJECT_ID":"2022-119W","ECCENTRICITY":"0.00013430","TLE_LINE1":"1 53906U 22119W   22349.91667824 -.00911444  00000-0 -33366-1 0  9998","LAUNCH_DATE":"2022-09-24"},{"MEAN_MOTION_DOT":"0.00000377","FILE":"3702726","DECAY_DATE":null,"APOAPSIS":"540.999","EPHEMERIS_TYPE":"0","ARG_OF_PERICENTER":"57.6296","REV_AT_EPOCH":"1357","OBJECT_NAME":"STARLINK-5063","BSTAR":"0.00004175500000","EPOCH":"2022-12-15T20:10:17.623200","ELEMENT_SET_NO":"999","SEMIMAJOR_AXIS":"6917.862","REF_FRAME":"TEME","NORAD_CAT_ID":"53907","CENTER_NAME":"EARTH","COUNTRY_CODE":"US","OBJECT_TYPE":"PAYLOAD","GP_ID":"220530948","TLE_LINE2":"2 53907  53.2160 220.2221 0001839  57.6296 302.4874 15.08845920 13576","ECCENTRICITY":"0.00018390","TLE_LINE1":"1 53907U 22119X   22349.84048175  .00000377  00000-0  41755-4 0  9999","LAUNCH_DATE":"2022-09-24","OBJECT_ID":"2022-119X","RCS_SIZE":"LARGE","MEAN_MOTION":"15.08845920","TIME_SYSTEM":"UTC","MEAN_ANOMALY":"302.4874","CLASSIFICATION_TYPE":"U","MEAN_MOTION_DDOT":"0.0000000000000","SITE":"AFETR","PERIOD":"95.437","RA_OF_ASC_NODE":"220.2221","INCLINATION":"53.2160","PERIAPSIS":"538.455","MEAN_ELEMENT_THEORY":"SGP4"},{"CENTER_NAME":"EARTH","COUNTRY_CODE":"US","REF_FRAME":"TEME","NORAD_CAT_ID":"53908","OBJECT_TYPE":"PAYLOAD","TLE_LINE2":"2 53908  53.2175 210.9063 0001353  82.5302 177.5797 15.26441086  1307","GP_ID":"220531160","ARG_OF_PERICENTER":"82.5302","EPHEMERIS_TYPE":"0","REV_AT_EPOCH":"130","MEAN_MOTION_DOT":"-0.01134605","FILE":"3702726","DECAY_DATE":null,"APOAPSIS":"487.392","ELEMENT_SET_NO":"999","SEMIMAJOR_AXIS":"6864.599","OBJECT_NAME":"STARLINK-5057","BSTAR":"-0.04717200000000","EPOCH":"2022-12-15T22:00:00.999936","RA_OF_ASC_NODE":"210.9063","PERIOD":"94.337","SITE":"AFETR","MEAN_MOTION_DDOT":"0.0000000000000","INCLINATION":"53.2175","PERIAPSIS":"485.535","MEAN_ELEMENT_THEORY":"SGP4","RCS_SIZE":"LARGE","MEAN_MOTION":"15.26441086","TLE_LINE1":"1 53908U 22119Y   22349.91667824 -.01134605  00000-0 -47172-1 0  9997","ECCENTRICITY":"0.00013530","LAUNCH_DATE":"2022-09-24","OBJECT_ID":"2022-119Y","MEAN_ANOMALY":"177.5797","CLASSIFICATION_TYPE":"U","TIME_SYSTEM":"UTC"}];
